{
  "type": "FeatureCollection",
  "features": [
    {
      "type": "Feature",
      "properties": {
        "norad_id": 22490,
        "name": "SCD 1",
        "group": "resource",
        "lat": 20.363881954825853,
        "lon": -40.0654768317684,
        "alt_km": 704.4552032136608,
        "timestamp": "2025-12-26T15:29:39.094611+00:00",
        "meta_object_name": "SCD 1",
        "meta_object_id": "1993-009B",
        "meta_epoch": "2025-12-25T16:00:22.325184",
        "meta_mean_motion": 14.46007346,
        "meta_eccentricity": 0.0042177,
        "meta_inclination": 24.9675,
        "meta_ra_of_asc_node": 198.8837,
        "meta_arg_of_pericenter": 101.5468,
        "meta_mean_anomaly": 317.8225,
        "meta_ephemeris_type": 0,
        "meta_classification_type": "U",
        "meta_norad_cat_id": 22490,
        "meta_element_set_no": 999,
        "meta_rev_at_epoch": 73597,
        "meta_bstar": 8.5981e-05,
        "meta_mean_motion_dot": 5e-06,
        "meta_mean_motion_ddot": 0,
        "tle_line1": "1 22490U 93009B   25359.66692506  .00000500  00000+0  85981-4 0  9991",
        "tle_line2": "2 22490  24.9675 198.8837 0042177 101.5468 317.8225 14.46007346735976"
      },
      "geometry": {
        "type": "Point",
        "coordinates": [
          -40.0654768317684,
          20.363881954825853
        ]
      }
    },
    {
      "type": "Feature",
      "properties": {
        "norad_id": 25397,
        "name": "TECHSAT 1B (GO-32)",
        "group": "resource",
        "lat": 24.531040721522928,
        "lon": 168.32416075688968,
        "alt_km": 810.4681126259829,
        "timestamp": "2025-12-26T15:29:39.094638+00:00",
        "meta_object_name": "TECHSAT 1B (GO-32)",
        "meta_object_id": "1998-043D",
        "meta_epoch": "2025-12-25T21:54:35.731584",
        "meta_mean_motion": 14.24380587,
        "meta_eccentricity": 0.0001626,
        "meta_inclination": 98.9934,
        "meta_ra_of_asc_node": 343.4298,
        "meta_arg_of_pericenter": 35.4202,
        "meta_mean_anomaly": 324.7083,
        "meta_ephemeris_type": 0,
        "meta_classification_type": "U",
        "meta_norad_cat_id": 25397,
        "meta_element_set_no": 999,
        "meta_rev_at_epoch": 42666,
        "meta_bstar": 5.7042e-05,
        "meta_mean_motion_dot": 8.5e-07,
        "meta_mean_motion_ddot": 0,
        "tle_line1": "1 25397U 98043D   25359.91291356  .00000085  00000+0  57042-4 0  9994",
        "tle_line2": "2 25397  98.9934 343.4298 0001626  35.4202 324.7083 14.24380587426667"
      },
      "geometry": {
        "type": "Point",
        "coordinates": [
          168.32416075688968,
          24.531040721522928
        ]
      }
    },
    {
      "type": "Feature",
      "properties": {
        "norad_id": 25504,
        "name": "SCD 2",
        "group": "resource",
        "lat": 19.60440771925502,
        "lon": -173.7061484905916,
        "alt_km": 725.0041977829987,
        "timestamp": "2025-12-26T15:29:39.094653+00:00",
        "meta_object_name": "SCD 2",
        "meta_object_id": "1998-060A",
        "meta_epoch": "2025-12-26T06:52:50.825568",
        "meta_mean_motion": 14.45430592,
        "meta_eccentricity": 0.00170676,
        "meta_inclination": 24.9957,
        "meta_ra_of_asc_node": 58.3644,
        "meta_arg_of_pericenter": 95.9915,
        "meta_mean_anomaly": 319.9792,
        "meta_ephemeris_type": 0,
        "meta_classification_type": "U",
        "meta_norad_cat_id": 25504,
        "meta_element_set_no": 999,
        "meta_rev_at_epoch": 43528,
        "meta_bstar": 8.0251292e-05,
        "meta_mean_motion_dot": 4.69e-06,
        "meta_mean_motion_ddot": 0,
        "tle_line1": "1 25504U 98060A   25360.28669937  .00000469  00000+0  80251-4 0  9993",
        "tle_line2": "2 25504  24.9957  58.3644 0017067  95.9915 319.9792 14.45430592435282"
      },
      "geometry": {
        "type": "Point",
        "coordinates": [
          -173.7061484905916,
          19.60440771925502
        ]
      }
    },
    {
      "type": "Feature",
      "properties": {
        "norad_id": 25757,
        "name": "DLR-TUBSAT",
        "group": "resource",
        "lat": -27.939746056130378,
        "lon": -9.777151573704677,
        "alt_km": 733.8037268309026,
        "timestamp": "2025-12-26T15:29:39.094666+00:00",
        "meta_object_name": "DLR-TUBSAT",
        "meta_object_id": "1999-029B",
        "meta_epoch": "2025-12-17T13:22:10.787520",
        "meta_mean_motion": 14.52359578,
        "meta_eccentricity": 0.00141996,
        "meta_inclination": 98.6566,
        "meta_ra_of_asc_node": 336.2196,
        "meta_arg_of_pericenter": 177.8976,
        "meta_mean_anomaly": 182.2281,
        "meta_ephemeris_type": 0,
        "meta_classification_type": "U",
        "meta_norad_cat_id": 25757,
        "meta_element_set_no": 999,
        "meta_rev_at_epoch": 40688,
        "meta_bstar": 3.7650132e-05,
        "meta_mean_motion_dot": 1.05e-06,
        "meta_mean_motion_ddot": 0,
        "tle_line1": "1 25757U 99029B   25351.55706930  .00000105  00000+0  37650-4 0  9996",
        "tle_line2": "2 25757  98.6566 336.2196 0014199 177.8976 182.2281 14.52359578406886"
      },
      "geometry": {
        "type": "Point",
        "coordinates": [
          -9.777151573704677,
          -27.939746056130378
        ]
      }
    },
    {
      "type": "Feature",
      "properties": {
        "norad_id": 25994,
        "name": "TERRA",
        "group": "resource",
        "lat": 75.90343731951938,
        "lon": -94.25607926826895,
        "alt_km": 681.0696106407295,
        "timestamp": "2025-12-26T15:29:39.094678+00:00",
        "meta_object_name": "TERRA",
        "meta_object_id": "1999-068A",
        "meta_epoch": "2025-12-26T07:08:23.257824",
        "meta_mean_motion": 14.60916663,
        "meta_eccentricity": 0.00033904,
        "meta_inclination": 97.973,
        "meta_ra_of_asc_node": 51.4832,
        "meta_arg_of_pericenter": 67.413,
        "meta_mean_anomaly": 4.5335,
        "meta_ephemeris_type": 0,
        "meta_classification_type": "U",
        "meta_norad_cat_id": 25994,
        "meta_element_set_no": 999,
        "meta_rev_at_epoch": 38436,
        "meta_bstar": 0.00010871656,
        "meta_mean_motion_dot": 4.88e-06,
        "meta_mean_motion_ddot": 0,
        "tle_line1": "1 25994U 99068A   25360.29749141  .00000488  00000+0  10872-3 0  9994",
        "tle_line2": "2 25994  97.9730  51.4832 0003390  67.4130   4.5335 14.60916663384361"
      },
      "geometry": {
        "type": "Point",
        "coordinates": [
          -94.25607926826895,
          75.90343731951938
        ]
      }
    },
    {
      "type": "Feature",
      "properties": {
        "norad_id": 27004,
        "name": "MAROC-TUBSAT",
        "group": "resource",
        "lat": -58.792090739399754,
        "lon": -27.22760151615475,
        "alt_km": 992.056001220134,
        "timestamp": "2025-12-26T15:29:39.094691+00:00",
        "meta_object_name": "MAROC-TUBSAT",
        "meta_object_id": "2001-056D",
        "meta_epoch": "2025-12-26T06:26:07.011744",
        "meta_mean_motion": 13.70253526,
        "meta_eccentricity": 0.00193067,
        "meta_inclination": 99.7917,
        "meta_ra_of_asc_node": 168.9503,
        "meta_arg_of_pericenter": 224.2879,
        "meta_mean_anomaly": 314.8235,
        "meta_ephemeris_type": 0,
        "meta_classification_type": "U",
        "meta_norad_cat_id": 27004,
        "meta_element_set_no": 999,
        "meta_rev_at_epoch": 20250,
        "meta_bstar": 2.9357085e-05,
        "meta_mean_motion_dot": -2.1e-07,
        "meta_mean_motion_ddot": 0,
        "tle_line1": "1 27004U 01056D   25360.26813671 -.00000021  00000+0  29357-4 0  9998",
        "tle_line2": "2 27004  99.7917 168.9503 0019306 224.2879 314.8235 13.70253526202501"
      },
      "geometry": {
        "type": "Point",
        "coordinates": [
          -27.22760151615475,
          -58.792090739399754
        ]
      }
    },
    {
      "type": "Feature",
      "properties": {
        "norad_id": 27424,
        "name": "AQUA",
        "group": "resource",
        "lat": 21.740683538682372,
        "lon": -41.62825415435956,
        "alt_km": 686.930507386026,
        "timestamp": "2025-12-26T15:29:39.094702+00:00",
        "meta_object_name": "AQUA",
        "meta_object_id": "2002-022A",
        "meta_epoch": "2025-12-24T19:18:33.414624",
        "meta_mean_motion": 14.61757572,
        "meta_eccentricity": 0.00018094,
        "meta_inclination": 98.4055,
        "meta_ra_of_asc_node": 319.881,
        "meta_arg_of_pericenter": 102.1365,
        "meta_mean_anomaly": 317.5475,
        "meta_ephemeris_type": 0,
        "meta_classification_type": "U",
        "meta_norad_cat_id": 27424,
        "meta_element_set_no": 999,
        "meta_rev_at_epoch": 25779,
        "meta_bstar": 0.00019560508,
        "meta_mean_motion_dot": 9.26e-06,
        "meta_mean_motion_ddot": 0,
        "tle_line1": "1 27424U 02022A   25358.80455341  .00000926  00000+0  19561-3 0  9999",
        "tle_line2": "2 27424  98.4055 319.8810 0001809 102.1365 317.5475 14.61757572257795"
      },
      "geometry": {
        "type": "Point",
        "coordinates": [
          -41.62825415435956,
          21.740683538682372
        ]
      }
    }
  ]
}